GLOBALSTAR M068         
1 32266U 07048D   25185.49401712 -.00000068  00000+0  19677-3 0  9994
2 32266  51.9875 249.5017 0001370 165.7918 298.2097 12.62825713819745
GLOBALSTAR M079         
1 37188U 10054A   25185.14122404 -.00000099  00000+0  27785-4 0  9997
2 37188  52.0042  88.1746 0000732  30.7880 116.9551 12.62265328678594
GLOBALSTAR M074         
1 37189U 10054B   25185.17163336 -.00000100  00000+0  20760-4 0  9999
2 37189  52.0025  87.4044 0000819  51.5869 112.6693 12.62257045679209
GLOBALSTAR M076         
1 37190U 10054C   25185.64301777 -.00000110  00000+0 -33242-4 0  9997
2 37190  52.0033  86.1399 0000899  44.5850 343.8048 12.62263335679345
GLOBALSTAR M077         
1 37191U 10054D   25185.63110743 -.00000104  00000+0 -19821-5 0  9999
2 37191  52.0085  43.0378 0000852  71.7755 322.7386 12.62268759679354
GLOBALSTAR M075         
1 37192U 10054E   25185.28792122 -.00000082  00000+0  11930-3 0  9993
2 37192  51.9937 129.4683 0000409  38.2822 115.7099 12.62265902678007
GLOBALSTAR M073         
1 37193U 10054F   25185.89053993 -.00000102  00000+0  10323-4 0  9996
2 37193  52.0073  41.4660 0000902  64.9203 308.9382 12.62272310680124
GLOBALSTAR M083         
1 37739U 11033A   25185.68115997 -.00000081  00000+0  12672-3 0  9994
2 37739  51.9880 350.8126 0000661  99.0889 341.5892 12.62259700649424
GLOBALSTAR M088         
1 37740U 11033B   25185.67322167 -.00000096  00000+0  43396-4 0  9998
2 37740  52.0209 256.4221 0000532 148.7424  16.6540 12.62266415644891
GLOBALSTAR M091         
1 37741U 11033C   25185.52463753 -.00000093  00000+0  57903-4 0  9996
2 37741  51.9973 220.3513 0000312 212.0012 298.3618 12.62269149645372
GLOBALSTAR M085         
1 37742U 11033D   25185.43541815 -.00000087  00000+0  92639-4 0  9991
2 37742  51.9840 171.6435 0000200 302.3874 222.9166 12.62269623645875
GLOBALSTAR M081         
1 37743U 11033E   25185.29021676 -.00000087  00000+0  93003-4 0  9990
2 37743  51.9932 174.8858 0000287 338.6925 124.9815 12.62266932646004
GLOBALSTAR M089         
1 37744U 11033F   25185.86482588 -.00000097  00000+0  38162-4 0  9993
2 37744  51.9920 127.3586 0000664  53.1114 324.2079 12.62265180647171
GLOBALSTAR M084         
1 38040U 11080A   25185.40060656 -.00000092  00000+0  67067-4 0  9994
2 38040  52.0030 356.0707 0001136  87.4171 278.5417 12.62266927624845
GLOBALSTAR M080         
1 38041U 11080B   25185.62528792 -.00000093  00000+0  62870-4 0  9997
2 38041  52.0082 356.9850 0000791 126.7298 310.1506 12.62263777624992
GLOBALSTAR M082         
1 38042U 11080C   25185.56217257 -.00000104  00000+0 -73651-6 0  9997
2 38042  52.0092 312.6398 0000686 146.6253 294.1044 12.62266944625690
GLOBALSTAR M092         
1 38043U 11080D   25185.07824770 -.00000102  00000+0  98874-5 0  9998
2 38043  52.0096  44.4897 0000837  77.1421  83.3161 12.62264456624088
GLOBALSTAR M090         
1 38044U 11080E   25185.50874973 -.00000105  00000+0 -80489-5 0  9994
2 38044  52.0139 306.6434 0000576 125.5248 313.7505 12.62273728625807
GLOBALSTAR M086         
1 38045U 11080F   25185.53528054 -.00000092  00000+0  64954-4 0  9996
2 38045  51.9915 307.0575 0001027  38.8707  41.4150 12.62272206625752
GLOBALSTAR M097         
1 39072U 13005A   25185.38585773 -.00000096  00000+0  41928-4 0  9990
2 39072  52.0031 222.0766 0000058 172.1327 187.9541 12.62265524572986
GLOBALSTAR M093         
1 39073U 13005B   25185.43870680 -.00000093  00000+0  58412-4 0  9994
2 39073  51.9785 215.1913 0000095 234.6591 125.4266 12.62265848572942
GLOBALSTAR M094         
1 39074U 13005C   25185.20126324 -.00000100  00000+0  20641-4 0  9991
2 39074  51.9946 130.3123 0000496   2.9539 357.1331 12.62262832574541
GLOBALSTAR M096         
1 39075U 13005D   25185.37277456 -.00000093  00000+0  62384-4 0  9994
2 39075  52.0043 178.3184 0000266 307.2305  52.8537 12.62265553573468
GLOBALSTAR M078         
1 39076U 13005E   25185.58395465  .00000013  00000+0  64940-3 0  9999
2 39076  51.9870 262.1649 0000965 190.0390 170.0457 12.62259515572117
GLOBALSTAR M095         
1 39077U 13005F   25185.37261994 -.00000097  00000+0  37739-4 0  9996
2 39077  51.9799 259.9949 0000501 200.3662 159.7184 12.62267832571940
GLOBALSTAR M087         
1 52888U 22064A   25183.81968019 -.00000103  00000+0  34072-5 0  9991
2 52888  52.0007  46.2073 0000667  72.7949 287.2990 12.62263643147011
